{"type": "FeatureCollection", "features": [ {"type": "Feature", "properties": {"norad_id": 35480, "name": "IRIDIUM 33 DEB", "group": "iridium-33-debris", "lat": -85.55062775813161, "lon": -28.0508997026619, "alt_km": 744.1789031472508, "timestamp": "2025-12-08T03:50:07.381783+00:00", "meta": {"OBJECT_NAME": "IRIDIUM 33 DEB", "OBJECT_ID": "1997-051QA", "EPOCH": "2025-12-01T21:29:27.496896", "MEAN_MOTION": 14.49686619, "ECCENTRICITY": 0.00155495, "INCLINATION": 86.3575, "RA_OF_ASC_NODE": 29.6125, "ARG_OF_PERICENTER": 136.7189, "MEAN_ANOMALY": 223.524, "EPHEMERIS_TYPE": 0, "CLASSIFICATION_TYPE": "U", "NORAD_CAT_ID": 35480, "ELEMENT_SET_NO": 999, "REV_AT_EPOCH": 86874, "BSTAR": 0.000651702, "MEAN_MOTION_DOT": 2.53e-05, "MEAN_MOTION_DDOT": 0}, "tle": {"line1": "1 35480U 97051QA  25335.89545714  .00002530  00000+0  65170-3 0  9994", "line2": "2 35480  86.3575  29.6125 0015549 136.7189 223.5240 14.49686619868745"}}, "geometry": {"type": "Point", "coordinates": [-28.0508997026619, -85.55062775813161]}}, {"type": "Feature", "properties": {"norad_id": 35484, "name": "IRIDIUM 33 DEB", "group": "iridium-33-debris", "lat": -6.743327937522071, "lon": -5.539651564040848, "alt_km": 589.7954741943904, "timestamp": "2025-12-08T03:50:07.381793+00:00", "meta": {"OBJECT_NAME": "IRIDIUM 33 DEB", "OBJECT_ID": "1997-051QE", "EPOCH": "2025-12-01T19:32:14.692416", "MEAN_MOTION": 14.97587734, "ECCENTRICITY": 0.00218288, "INCLINATION": 86.3628, "RA_OF_ASC_NODE": 357.8533, "ARG_OF_PERICENTER": 162.6444, "MEAN_ANOMALY": 197.5538, "EPHEMERIS_TYPE": 0, "CLASSIFICATION_TYPE": "U", "NORAD_CAT_ID": 35484, "ELEMENT_SET_NO": 999, "REV_AT_EPOCH": 61852, "BSTAR": 0.0025030806, "MEAN_MOTION_DOT": 0.00029486, "MEAN_MOTION_DDOT": 0}, "tle": {"line1": "1 35484U 97051QE  25335.81405894  .00029486  00000+0  25031-2 0  9994", "line2": "2 35484  86.3628 357.8533 0021828 162.6444 197.5538 14.97587734618526"}}, "geometry": {"type": "Point", "coordinates": [-5.539651564040848, -6.743327937522071]}}, {"type": "Feature", "properties": {"norad_id": 35488, "name": "IRIDIUM 33 DEB", "group": "iridium-33-debris", "lat": -0.22843855746737154, "lon": -57.02558190284059, "alt_km": 611.6431547258699, "timestamp": "2025-12-08T03:50:07.381803+00:00", "meta": {"OBJECT_NAME": "IRIDIUM 33 DEB", "OBJECT_ID": "1997-051QJ", "EPOCH": "2025-12-06T08:06:29.076192", "MEAN_MOTION": 14.82814099, "ECCENTRICITY": 0.00304933, "INCLINATION": 86.3261, "RA_OF_ASC_NODE": 303.8283, "ARG_OF_PERICENTER": 63.1444, "MEAN_ANOMALY": 297.2891, "EPHEMERIS_TYPE": 0, "CLASSIFICATION_TYPE": "U", "NORAD_CAT_ID": 35488, "ELEMENT_SET_NO": 999, "REV_AT_EPOCH": 88171, "BSTAR": 0.0025956954, "MEAN_MOTION_DOT": 0.00021231, "MEAN_MOTION_DDOT": 0}, "tle": {"line1": "1 35488U 97051QJ  25340.33783653  .00021231  00000+0  25957-2 0  9990", "line2": "2 35488  86.3261 303.8283 0030493  63.1444 297.2891 14.82814099881713"}}, "geometry": {"type": "Point", "coordinates": [-57.02558190284059, -0.22843855746737154]}}, {"type": "Feature", "properties": {"norad_id": 35616, "name": "IRIDIUM 33 DEB", "group": "iridium-33-debris", "lat": -0.01623793599717078, "lon": 167.85637755960178, "alt_km": 620.7859405038507, "timestamp": "2025-12-08T03:50:07.381813+00:00", "meta": {"OBJECT_NAME": "IRIDIUM 33 DEB", "OBJECT_ID": "1997-051QN", "EPOCH": "2025-12-06T07:15:38.847744", "MEAN_MOTION": 14.81564916, "ECCENTRICITY": 0.00091957, "INCLINATION": 86.3542, "RA_OF_ASC_NODE": 348.7026, "ARG_OF_PERICENTER": 186.8662, "MEAN_ANOMALY": 173.2436, "EPHEMERIS_TYPE": 0, "CLASSIFICATION_TYPE": "U", "NORAD_CAT_ID": 35616, "ELEMENT_SET_NO": 999, "REV_AT_EPOCH": 87479, "BSTAR": 0.0030438731, "MEAN_MOTION_DOT": 0.00023991, "MEAN_MOTION_DDOT": 0}, "tle": {"line1": "1 35616U 97051QN  25340.30253296  .00023991  00000+0  30439-2 0  9991", "line2": "2 35616  86.3542 348.7026 0009195 186.8662 173.2436 14.81564916874798"}}, "geometry": {"type": "Point", "coordinates": [167.85637755960178, -0.01623793599717078]}}, {"type": "Feature", "properties": {"norad_id": 35618, "name": "IRIDIUM 33 DEB", "group": "iridium-33-debris", "lat": 70.08550548696907, "lon": 5.6787897834417524, "alt_km": 693.6509427871106, "timestamp": "2025-12-08T03:50:07.381826+00:00", "meta": {"OBJECT_NAME": "IRIDIUM 33 DEB", "OBJECT_ID": "1997-051QQ", "EPOCH": "2025-12-05T07:42:53.148672", "MEAN_MOTION": 14.52258119, "ECCENTRICITY": 0.00302089, "INCLINATION": 86.3407, "RA_OF_ASC_NODE": 356.7447, "ARG_OF_PERICENTER": 46.3254, "MEAN_ANOMALY": 314.0448, "EPHEMERIS_TYPE": 0, "CLASSIFICATION_TYPE": "U", "NORAD_CAT_ID": 35618, "ELEMENT_SET_NO": 999, "REV_AT_EPOCH": 65286, "BSTAR": 0.00091388234, "MEAN_MOTION_DOT": 3.753e-05, "MEAN_MOTION_DDOT": 0}, "tle": {"line1": "1 35618U 97051QQ  25339.32144848  .00003753  00000+0  91388-3 0  9990", "line2": "2 35618  86.3407 356.7447 0030208  46.3254 314.0448 14.52258119652865"}}, "geometry": {"type": "Point", "coordinates": [5.6787897834417524, 70.08550548696907]}}, {"type": "Feature", "properties": {"norad_id": 35620, "name": "IRIDIUM 33 DEB", "group": "iridium-33-debris", "lat": -70.07937147337876, "lon": -150.6537468570298, "alt_km": 674.2918519399382, "timestamp": "2025-12-08T03:50:07.381836+00:00", "meta": {"OBJECT_NAME": "IRIDIUM 33 DEB", "OBJECT_ID": "1997-051QS", "EPOCH": "2025-12-06T22:05:29.141088", "MEAN_MOTION": 14.37743755, "ECCENTRICITY": 0.01434797, "INCLINATION": 86.3877, "RA_OF_ASC_NODE": 219.9074, "ARG_OF_PERICENTER": 278.1615, "MEAN_ANOMALY": 80.3329, "EPHEMERIS_TYPE": 0, "CLASSIFICATION_TYPE": "U", "NORAD_CAT_ID": 35620, "ELEMENT_SET_NO": 999, "REV_AT_EPOCH": 59882, "BSTAR": 0.0084190173, "MEAN_MOTION_DOT": 0.00028635, "MEAN_MOTION_DDOT": 0}, "tle": {"line1": "1 35620U 97051QS  25340.92047617  .00028635  00000+0  84190-2 0  9995", "line2": "2 35620  86.3877 219.9074 0143479 278.1615  80.3329 14.37743755598820"}}, "geometry": {"type": "Point", "coordinates": [-150.6537468570298, -70.07937147337876]}}, {"type": "Feature", "properties": {"norad_id": 35622, "name": "IRIDIUM 33 DEB", "group": "iridium-33-debris", "lat": 2.9655607345813912, "lon": -93.94560995918876, "alt_km": 551.5062974200428, "timestamp": "2025-12-08T03:50:07.381846+00:00", "meta": {"OBJECT_NAME": "IRIDIUM 33 DEB", "OBJECT_ID": "1997-051QU", "EPOCH": "2025-12-07T06:08:10.382208", "MEAN_MOTION": 15.0368423, "ECCENTRICITY": 0.00091825, "INCLINATION": 86.2049, "RA_OF_ASC_NODE": 266.3018, "ARG_OF_PERICENTER": 353.8818, "MEAN_ANOMALY": 157.8722, "EPHEMERIS_TYPE": 0, "CLASSIFICATION_TYPE": "U", "NORAD_CAT_ID": 35622, "ELEMENT_SET_NO": 999, "REV_AT_EPOCH": 87277, "BSTAR": 0.0074565803, "MEAN_MOTION_DOT": 0.00103587, "MEAN_MOTION_DDOT": 0}, "tle": {"line1": "1 35622U 97051QU  25341.25567572  .00103587  00000+0  74566-2 0  9997", "line2": "2 35622  86.2049 266.3018 0009182 353.8818 157.8722 15.03684230872776"}}, "geometry": {"type": "Point", "coordinates": [-93.94560995918876, 2.9655607345813912]}}, {"type": "Feature", "properties": {"norad_id": 35628, "name": "IRIDIUM 33 DEB", "group": "iridium-33-debris", "lat": 76.49138284249848, "lon": 26.495147491767757, "alt_km": 660.1357152457949, "timestamp": "2025-12-08T03:50:07.381856+00:00", "meta": {"OBJECT_NAME": "IRIDIUM 33 DEB", "OBJECT_ID": "1997-051RA", "EPOCH": "2025-12-04T09:28:36.488064", "MEAN_MOTION": 14.67394134, "ECCENTRICITY": 0.001144, "INCLINATION": 86.3576, "RA_OF_ASC_NODE": 12.797, "ARG_OF_PERICENTER": 12.0998, "MEAN_ANOMALY": 348.0488, "EPHEMERIS_TYPE": 0, "CLASSIFICATION_TYPE": "U", "NORAD_CAT_ID": 35628, "ELEMENT_SET_NO": 999, "REV_AT_EPOCH": 86324, "BSTAR": 0.0032445, "MEAN_MOTION_DOT": 0.00018408, "MEAN_MOTION_DDOT": 0}, "tle": {"line1": "1 35628U 97051RA  25338.39486676  .00018408  00000+0  32445-2 0  9996", "line2": "2 35628  86.3576  12.7970 0011440  12.0998 348.0488 14.67394134863246"}}, "geometry": {"type": "Point", "coordinates": [26.495147491767757, 76.49138284249848]}}, {"type": "Feature", "properties": {"norad_id": 35631, "name": "IRIDIUM 33 DEB", "group": "iridium-33-debris", "lat": -54.2630851180904, "lon": 17.88568987540669, "alt_km": 754.725456459274, "timestamp": "2025-12-08T03:50:07.381866+00:00", "meta": {"OBJECT_NAME": "IRIDIUM 33 DEB", "OBJECT_ID": "1997-051RD", "EPOCH": "2025-12-06T21:23:47.071392", "MEAN_MOTION": 14.47286545, "ECCENTRICITY": 0.00185223, "INCLINATION": 86.3689, "RA_OF_ASC_NODE": 23.4943, "ARG_OF_PERICENTER": 135.5581, "MEAN_ANOMALY": 46.1978, "EPHEMERIS_TYPE": 0, "CLASSIFICATION_TYPE": "U", "NORAD_CAT_ID": 35631, "ELEMENT_SET_NO": 999, "REV_AT_EPOCH": 87112, "BSTAR": 0.00062002851, "MEAN_MOTION_DOT": 2.292e-05, "MEAN_MOTION_DDOT": 0}, "tle": {"line1": "1 35631U 97051RD  25340.89151703  .00002292  00000+0  62003-3 0  9996", "line2": "2 35631  86.3689  23.4943 0018522 135.5581  46.1978 14.47286545871121"}}, "geometry": {"type": "Point", "coordinates": [17.88568987540669, -54.2630851180904]}}, {"type": "Feature", "properties": {"norad_id": 35680, "name": "IRIDIUM 33 DEB", "group": "iridium-33-debris", "lat": -6.728685931061424, "lon": 23.091467341101872, "alt_km": 771.4798676428354, "timestamp": "2025-12-08T03:50:07.381876+00:00", "meta": {"OBJECT_NAME": "IRIDIUM 33 DEB", "OBJECT_ID": "1997-051RJ", "EPOCH": "2025-12-06T09:39:51.736896", "MEAN_MOTION": 14.20748737, "ECCENTRICITY": 0.01506079, "INCLINATION": 86.1022, "RA_OF_ASC_NODE": 24.3298, "ARG_OF_PERICENTER": 298.7228, "MEAN_ANOMALY": 71.4349, "EPHEMERIS_TYPE": 0, "CLASSIFICATION_TYPE": "U", "NORAD_CAT_ID": 35680, "ELEMENT_SET_NO": 999, "REV_AT_EPOCH": 60611, "BSTAR": 0.0059192818, "MEAN_MOTION_DOT": 0.00014348, "MEAN_MOTION_DDOT": 0}, "tle": {"line1": "1 35680U 97051RJ  25340.40268214  .00014348  00000+0  59193-2 0  9993", "line2": "2 35680  86.1022  24.3298 0150607 298.7228  71.4349 14.20748737606113"}}, "geometry": {"type": "Point", "coordinates": [23.091467341101872, -6.728685931061424]}}]}